{"type": "FeatureCollection", "features": [ {"type": "Feature", "properties": {"norad_id": 34340, "name": "COSMOS 2251 DEB", "group": "cosmos-2251-debris", "lat": -36.17350454563808, "lon": 116.73270343746597, "alt_km": 1177.5624594220872, "timestamp": "2025-12-26T16:33:55.964636+00:00", "meta": {"OBJECT_NAME": "COSMOS 2251 DEB", "OBJECT_ID": "1993-036PN", "EPOCH": "2025-12-26T05:47:08.785824", "MEAN_MOTION": 13.79630171, "ECCENTRICITY": 0.02844233, "INCLINATION": 74.0791, "RA_OF_ASC_NODE": 285.4366, "ARG_OF_PERICENTER": 30.1014, "MEAN_ANOMALY": 118.2021, "EPHEMERIS_TYPE": 0, "CLASSIFICATION_TYPE": "U", "NORAD_CAT_ID": 34340, "ELEMENT_SET_NO": 999, "REV_AT_EPOCH": 84454, "BSTAR": 0.0018157539, "MEAN_MOTION_DOT": 2.517e-05, "MEAN_MOTION_DDOT": 0}, "tle": {"line1": "1 34340U 93036PN  25360.24107391  .00002517  00000+0  18158-2 0  9997", "line2": "2 34340  74.0791 285.4366 0284423  30.1014 118.2021 13.79630171844548"}}, "geometry": {"type": "Point", "coordinates": [116.73270343746597, -36.17350454563808]}}, {"type": "Feature", "properties": {"norad_id": 34343, "name": "COSMOS 2251 DEB", "group": "cosmos-2251-debris", "lat": 52.266909693502434, "lon": -139.23638431645, "alt_km": 672.1254451493023, "timestamp": "2025-12-26T16:33:55.964645+00:00", "meta": {"OBJECT_NAME": "COSMOS 2251 DEB", "OBJECT_ID": "1993-036PR", "EPOCH": "2025-12-26T06:28:07.488768", "MEAN_MOTION": 14.69640813, "ECCENTRICITY": 0.00245343, "INCLINATION": 74.0198, "RA_OF_ASC_NODE": 63.315, "ARG_OF_PERICENTER": 334.1582, "MEAN_ANOMALY": 85.4066, "EPHEMERIS_TYPE": 0, "CLASSIFICATION_TYPE": "U", "NORAD_CAT_ID": 34343, "ELEMENT_SET_NO": 999, "REV_AT_EPOCH": 88929, "BSTAR": 0.0013107069, "MEAN_MOTION_DOT": 7.809e-05, "MEAN_MOTION_DDOT": 0}, "tle": {"line1": "1 34343U 93036PR  25360.26953112  .00007809  00000+0  13107-2 0  9990", "line2": "2 34343  74.0198  63.3150 0024534 334.1582  85.4066 14.69640813889297"}}, "geometry": {"type": "Point", "coordinates": [-139.23638431645, 52.266909693502434]}}, {"type": "Feature", "properties": {"norad_id": 34344, "name": "COSMOS 2251 DEB", "group": "cosmos-2251-debris", "lat": 72.20859313290035, "lon": 149.00602263697672, "alt_km": 942.5438626415216, "timestamp": "2025-12-26T16:33:55.964654+00:00", "meta": {"OBJECT_NAME": "COSMOS 2251 DEB", "OBJECT_ID": "1993-036PS", "EPOCH": "2025-12-20T16:41:07.998144", "MEAN_MOTION": 14.16466858, "ECCENTRICITY": 0.01566321, "INCLINATION": 73.9786, "RA_OF_ASC_NODE": 96.1449, "ARG_OF_PERICENTER": 278.7098, "MEAN_ANOMALY": 204.8003, "EPHEMERIS_TYPE": 0, "CLASSIFICATION_TYPE": "U", "NORAD_CAT_ID": 34344, "ELEMENT_SET_NO": 999, "REV_AT_EPOCH": 86209, "BSTAR": 0.0013151537, "MEAN_MOTION_DOT": 2.924e-05, "MEAN_MOTION_DDOT": 0}, "tle": {"line1": "1 34344U 93036PS  25354.69523146  .00002924  00000+0  13152-2 0  9994", "line2": "2 34344  73.9786  96.1449 0156632 278.7098 204.8003 14.16466858862098"}}, "geometry": {"type": "Point", "coordinates": [149.00602263697672, 72.20859313290035]}}, {"type": "Feature", "properties": {"norad_id": 34346, "name": "COSMOS 2251 DEB", "group": "cosmos-2251-debris", "lat": 66.77823105035421, "lon": -29.9725521598025, "alt_km": 757.9472003658766, "timestamp": "2025-12-26T16:33:55.964663+00:00", "meta": {"OBJECT_NAME": "COSMOS 2251 DEB", "OBJECT_ID": "1993-036PU", "EPOCH": "2025-12-26T06:30:17.018784", "MEAN_MOTION": 13.99737426, "ECCENTRICITY": 0.02062549, "INCLINATION": 73.9946, "RA_OF_ASC_NODE": 288.7661, "ARG_OF_PERICENTER": 104.4356, "MEAN_ANOMALY": 18.1838, "EPHEMERIS_TYPE": 0, "CLASSIFICATION_TYPE": "U", "NORAD_CAT_ID": 34346, "ELEMENT_SET_NO": 999, "REV_AT_EPOCH": 85599, "BSTAR": 0.0010546118, "MEAN_MOTION_DOT": 1.833e-05, "MEAN_MOTION_DDOT": 0}, "tle": {"line1": "1 34346U 93036PU  25360.27103031  .00001833  00000+0  10546-2 0  9996", "line2": "2 34346  73.9946 288.7661 0206254 104.4356  18.1838 13.99737426855996"}}, "geometry": {"type": "Point", "coordinates": [-29.9725521598025, 66.77823105035421]}}, {"type": "Feature", "properties": {"norad_id": 34383, "name": "COSMOS 2251 DEB", "group": "cosmos-2251-debris", "lat": 24.95391574890977, "lon": -83.43904903000073, "alt_km": 532.2141083849456, "timestamp": "2025-12-26T16:33:55.964673+00:00", "meta": {"OBJECT_NAME": "COSMOS 2251 DEB", "OBJECT_ID": "1993-036PY", "EPOCH": "2025-12-26T04:23:53.054880", "MEAN_MOTION": 15.1028065, "ECCENTRICITY": 0.00029538, "INCLINATION": 74.0194, "RA_OF_ASC_NODE": 269.9451, "ARG_OF_PERICENTER": 44.5092, "MEAN_ANOMALY": 106.3294, "EPHEMERIS_TYPE": 0, "CLASSIFICATION_TYPE": "U", "NORAD_CAT_ID": 34383, "ELEMENT_SET_NO": 999, "REV_AT_EPOCH": 89316, "BSTAR": 0.0029368209, "MEAN_MOTION_DOT": 0.00048394, "MEAN_MOTION_DDOT": 0}, "tle": {"line1": "1 34383U 93036PY  25360.18325295  .00048394  00000+0  29368-2 0  9990", "line2": "2 34383  74.0194 269.9451 0002953  44.5092 106.3294 15.10280650893167"}}, "geometry": {"type": "Point", "coordinates": [-83.43904903000073, 24.95391574890977]}}, {"type": "Feature", "properties": {"norad_id": 34387, "name": "COSMOS 2251 DEB", "group": "cosmos-2251-debris", "lat": -72.07521603512258, "lon": 68.19250895952243, "alt_km": 726.489223674851, "timestamp": "2025-12-26T16:33:55.964682+00:00", "meta": {"OBJECT_NAME": "COSMOS 2251 DEB", "OBJECT_ID": "1993-036QC", "EPOCH": "2025-12-25T14:43:00.054912", "MEAN_MOTION": 14.43847706, "ECCENTRICITY": 0.0038885, "INCLINATION": 74.0385, "RA_OF_ASC_NODE": 187.9673, "ARG_OF_PERICENTER": 282.6327, "MEAN_ANOMALY": 143.236, "EPHEMERIS_TYPE": 0, "CLASSIFICATION_TYPE": "U", "NORAD_CAT_ID": 34387, "ELEMENT_SET_NO": 999, "REV_AT_EPOCH": 88367, "BSTAR": 0.00031273, "MEAN_MOTION_DOT": 1.048e-05, "MEAN_MOTION_DDOT": 0}, "tle": {"line1": "1 34387U 93036QC  25359.61319508  .00001048  00000+0  31273-3 0  9994", "line2": "2 34387  74.0385 187.9673 0038885 282.6327 143.2360 14.43847706883672"}}, "geometry": {"type": "Point", "coordinates": [68.19250895952243, -72.07521603512258]}}, {"type": "Feature", "properties": {"norad_id": 34388, "name": "COSMOS 2251 DEB", "group": "cosmos-2251-debris", "lat": 15.88797537882347, "lon": 12.266535253630549, "alt_km": 726.3230962630905, "timestamp": "2025-12-26T16:33:55.964751+00:00", "meta": {"OBJECT_NAME": "COSMOS 2251 DEB", "OBJECT_ID": "1993-036QD", "EPOCH": "2025-12-26T06:24:37.079712", "MEAN_MOTION": 14.49427536, "ECCENTRICITY": 0.0013554, "INCLINATION": 74.0376, "RA_OF_ASC_NODE": 197.7329, "ARG_OF_PERICENTER": 245.1426, "MEAN_ANOMALY": 231.3624, "EPHEMERIS_TYPE": 0, "CLASSIFICATION_TYPE": "U", "NORAD_CAT_ID": 34388, "ELEMENT_SET_NO": 999, "REV_AT_EPOCH": 88351, "BSTAR": 0.00063668687, "MEAN_MOTION_DOT": 2.412e-05, "MEAN_MOTION_DDOT": 0}, "tle": {"line1": "1 34388U 93036QD  25360.26709583  .00002412  00000+0  63669-3 0  9994", "line2": "2 34388  74.0376 197.7329 0013554 245.1426 231.3624 14.49427536883516"}}, "geometry": {"type": "Point", "coordinates": [12.266535253630549, 15.88797537882347]}}, {"type": "Feature", "properties": {"norad_id": 34389, "name": "COSMOS 2251 DEB", "group": "cosmos-2251-debris", "lat": 26.542200804993023, "lon": 35.71543918246537, "alt_km": 773.021030865827, "timestamp": "2025-12-26T16:33:55.964762+00:00", "meta": {"OBJECT_NAME": "COSMOS 2251 DEB", "OBJECT_ID": "1993-036QE", "EPOCH": "2025-12-26T01:34:02.664768", "MEAN_MOTION": 14.41561904, "ECCENTRICITY": 0.00294822, "INCLINATION": 74.0172, "RA_OF_ASC_NODE": 225.1047, "ARG_OF_PERICENTER": 334.686, "MEAN_ANOMALY": 175.7052, "EPHEMERIS_TYPE": 0, "CLASSIFICATION_TYPE": "U", "NORAD_CAT_ID": 34389, "ELEMENT_SET_NO": 999, "REV_AT_EPOCH": 88204, "BSTAR": 0.00029580207, "MEAN_MOTION_DOT": 9.4e-06, "MEAN_MOTION_DDOT": 0}, "tle": {"line1": "1 34389U 93036QE  25360.06530862  .00000940  00000+0  29580-3 0  9993", "line2": "2 34389  74.0172 225.1047 0029482 334.6860 175.7052 14.41561904882040"}}, "geometry": {"type": "Point", "coordinates": [35.71543918246537, 26.542200804993023]}}, {"type": "Feature", "properties": {"norad_id": 34396, "name": "COSMOS 2251 DEB", "group": "cosmos-2251-debris", "lat": -60.916451482356486, "lon": 65.78729265343624, "alt_km": 655.5906844405254, "timestamp": "2025-12-26T16:33:55.964771+00:00", "meta": {"OBJECT_NAME": "COSMOS 2251 DEB", "OBJECT_ID": "1993-036QM", "EPOCH": "2025-12-26T07:12:21.483360", "MEAN_MOTION": 14.74772436, "ECCENTRICITY": 0.00043537, "INCLINATION": 74.029, "RA_OF_ASC_NODE": 97.5391, "ARG_OF_PERICENTER": 131.2453, "MEAN_ANOMALY": 253.7887, "EPHEMERIS_TYPE": 0, "CLASSIFICATION_TYPE": "U", "NORAD_CAT_ID": 34396, "ELEMENT_SET_NO": 999, "REV_AT_EPOCH": 88546, "BSTAR": 0.0020343602, "MEAN_MOTION_DOT": 0.00013612, "MEAN_MOTION_DDOT": 0}, "tle": {"line1": "1 34396U 93036QM  25360.30024865  .00013612  00000+0  20344-2 0  9997", "line2": "2 34396  74.0290  97.5391 0004353 131.2453 253.7887 14.74772436885463"}}, "geometry": {"type": "Point", "coordinates": [65.78729265343624, -60.916451482356486]}}, {"type": "Feature", "properties": {"norad_id": 34400, "name": "COSMOS 2251 DEB", "group": "cosmos-2251-debris", "lat": 67.83393701515993, "lon": 37.22667522681517, "alt_km": 381.19600212586374, "timestamp": "2025-12-26T16:33:55.964781+00:00", "meta": {"OBJECT_NAME": "COSMOS 2251 DEB", "OBJECT_ID": "1993-036QR", "EPOCH": "2025-12-26T00:51:22.561920", "MEAN_MOTION": 15.59867989, "ECCENTRICITY": 0.00031289, "INCLINATION": 73.9625, "RA_OF_ASC_NODE": 353.7728, "ARG_OF_PERICENTER": 197.7837, "MEAN_ANOMALY": 162.3272, "EPHEMERIS_TYPE": 0, "CLASSIFICATION_TYPE": "U", "NORAD_CAT_ID": 34400, "ELEMENT_SET_NO": 999, "REV_AT_EPOCH": 90181, "BSTAR": 0.0034840418, "MEAN_MOTION_DOT": 0.00290612, "MEAN_MOTION_DDOT": 0}, "tle": {"line1": "1 34400U 93036QR  25360.03567780  .00290612  00000+0  34840-2 0  9994", "line2": "2 34400  73.9625 353.7728 0003128 197.7837 162.3272 15.59867989901815"}}, "geometry": {"type": "Point", "coordinates": [37.22667522681517, 67.83393701515993]}}]}